ONEWEB-0512             
1 54130U 22138T   24238.26170765  .00000048  00000+0  87412-4 0  9999
2 54130  87.9097  76.4653 0001234  80.3494 279.7778 13.19726892 89635
ONEWEB-0513             
1 54131U 22138U   24238.61155685 -.00000161  00000+0 -43481-3 0  9998
2 54131  87.9095  76.3881 0001253  70.7532 289.3736 13.19723976 89566
ONEWEB-0514             
1 54132U 22138V   24238.27750287  .00000089  00000+0  19103-3 0  9991
2 54132  87.9090  76.4479 0001771  84.5314 275.6021 13.19726381 89650
ONEWEB-0515             
1 54133U 22138W   24238.44389152  .00000048  00000+0  86980-4 0  9993
2 54133  87.9199  45.8420 0002584 107.5601 252.5815 13.20768764 92084
ONEWEB-0516             
1 54134U 22138X   24238.25222743  .00000043  00000+0  75138-4 0  9993
2 54134  87.9099  76.4687 0001667  88.5975 271.5348 13.19723493 89651
ONEWEB-0517             
1 54135U 22138Y   24238.61078270 -.00000013  00000+0 -63867-4 0  9993
2 54135  87.9090  76.3772 0001826  72.6676 287.4656 13.19725820 89706
ONEWEB-0518             
1 54136U 22138Z   24238.47810288 -.00000017  00000+0 -75599-4 0  9990
2 54136  87.9096  76.4213 0001707  82.5155 277.6172 13.19726566 89683
ONEWEB-0519             
1 54137U 22138AA  24238.27592086  .00000144  00000+0  32822-3 0  9992
2 54137  87.9090  76.4391 0001443  74.7211 285.4081 13.19727034 89663
